CREW DRAGON 12          
1 67796U 26031A   26064.57663400  .00008552  00000+0  16617-3 0  9999
2 67796  51.6316  92.6910 0008154 159.9772 200.1537 15.48460413555700
